     3.04           N: GNSS NAV DATA    M: Mixed            RINEX VERSION / TYPE
sbp2rinex v2.3 (RTKL                    20240410 141434 UTC PGM / RUN BY / DATE 
format: Swift Navigation SBP-JSON, option:                  COMMENT             
log: .\swift-gnss-20240410-130031.sbp.json                  COMMENT             
                                                            END OF HEADER       
G31 2024 04 10 11 59 44 -.228028744459D-03  .000000000000D+00  .000000000000D+00
      .200000000000D+02 -.240937500000D+02  .473484008224D-08  .229221513290D+01
     -.134482979774D-05  .105090521974D-01  .114478170872D-04  .515370497513D+04
      .302384000000D+06 -.191852450371D-06 -.221879289980D+00 -.212341547012D-06
      .954685235363D+00  .157093750000D+03  .668821017297D+00 -.788925719066D-08
     -.639669501945D-09  .200000000000D+01  .230900000000D+04  .100000000000D+01
      .200000000000D+01  .000000000000D+00 -.130385160446D-07  .200000000000D+02
      .298849000000D+06  .400000000000D+01
G26 2024 04 10 11 59 28  .168545171618D-03 -.500222085975D-11  .000000000000D+00
      .530000000000D+02  .128468750000D+03  .502020911186D-08  .156202213475D+01
      .688061118126D-05  .883629370946D-02  .113137066364D-04  .515362965775D+04
      .302368000000D+06 -.119209289551D-06  .724259873474D+00  .143423676491D-06
      .931740977426D+00  .146687500000D+03  .541617215251D+00 -.836570560807D-08
      .125005206969D-10  .200000000000D+01  .230900000000D+04  .100000000000D+01
      .200000000000D+01  .000000000000D+00  .698491930962D-08  .530000000000D+02
      .298849000000D+06  .400000000000D+01
S36 2024  4 10 10 59 28  .000000000000D+00  .000000000000D+00  .298852000000D+06
      .420036880000D+05  .000000000000D+00  .000000000000D+00  .100000000000D+01
      .367484696000D+04  .000000000000D+00  .000000000000D+00  .819200000000D+04
      .000000000000D+00  .000000000000D+00  .000000000000D+00  .000000000000D+00
E21 2024 04 10 10 30 00 -.588500231970D-03 -.204636307899D-11  .000000000000D+00
      .114000000000D+03  .241687500000D+03  .298476718468D-08  .325927151306D+00
      .111367553473D-04  .184301403351D-03  .109840184450D-04  .544061862755D+04
      .297000000000D+06 -.558793544769D-08  .833474438150D+00  .372529029846D-08
      .966675607451D+00  .106531250000D+03  .153817749170D+01 -.555308845128D-08
      .251439044874D-09  .517000000000D+03  .230900000000D+04  .000000000000D+00
      .312000000000D+01  .000000000000D+00  .325962901115D-08  .442378222942D-08
      .298857000000D+06  .000000000000D+00
R13 2024 04 10 11 15 00 -.461703166366D-04  .000000000000D+00  .414000000000D+05
      .147896962891D+05  .245567703247D+01  .372529029846D-08  .000000000000D+00
     -.266838378906D+04  .139464950562D+01  .372529029846D-08 -.200000000000D+01
      .205954697266D+05 -.158123874664D+01 -.931322574615D-09  .240000000000D+04
R12 2024 04 10 11 15 00  .388221815228D-04  .909494701773D-12  .414000000000D+05
      .221829960937D+05  .118104839325D+01  .558793544769D-08  .000000000000D+00
      .827983105469D+04  .561890602112D+00  .372529029846D-08 -.100000000000D+01
      .952718896484D+04 -.324434852600D+01  .931322574615D-09  .240000000000D+04
R23 2024 04 10 11 15 00 -.117463059723D-03 -.909494701773D-12  .414000000000D+05
      .212638857422D+05 -.174918270111D+01  .372529029846D-08  .000000000000D+00
     -.384747509766D+04  .657780647278D+00  .372529029846D-08  .300000000000D+01
      .135342851562D+05  .293349742889D+01  .000000000000D+00  .240000000000D+04
R22 2024 04 10 11 15 00  .115595757961D-03  .909494701773D-12  .414000000000D+05
      .893303808594D+04 -.281044197083D+01  .465661287308D-08  .000000000000D+00
      .761645019531D+04  .130340671539D+01  .186264514923D-08 -.300000000000D+01
      .226677539062D+05  .671861648560D+00 -.931322574615D-09  .240000000000D+04
C23 2024 04 10 11 00 00 -.775511492975D-03 -.166089364484D-12  .000000000000D+00
      .175000000000D+03  .783125000000D+02  .391552023999D-08 -.234802375332D+01
      .381423160434D-05  .575869344175D-04  .141384080052D-04  .528265692329D+04
      .298800000000D+06 -.293366611004D-07  .238889731288D+00 -.922009348869D-07
      .945497602193D+00  .657656250000D+02 -.803604429053D+00 -.668599278415D-08
     -.373229832235D-09  .120000000000D+02  .953000000000D+03  .000000000000D+00
      .200000000000D+01  .000000000000D+00  .223000000688D-07  .223000000688D-07
      .298848000000D+06  .175000000000D+03
C28 2024 04 10 11 00 00  .227008480579D-03  .422595292093D-11  .000000000000D+00
      .175000000000D+03 -.118312500000D+03  .413267214238D-08  .184632119725D+01
     -.584730878472D-05  .653443858027D-04  .823289155960D-06  .528263125420D+04
      .298800000000D+06 -.270083546638D-07  .234250833711D+01  .926665961742D-07
      .959286510637D+00  .344046875000D+03 -.966444214772D+00 -.735102048522D-08
     -.388587614805D-09  .120000000000D+02  .953000000000D+03  .000000000000D+00
      .200000000000D+01  .000000000000D+00 -.419999990342D-08 -.419999990342D-08
      .298848000000D+06  .175000000000D+03
C37 2024 04 10 11 00 00 -.956171192229D-03 -.581490411378D-11  .000000000000D+00
      .175000000000D+03  .665781250000D+02  .393123518030D-08  .278602683905D+01
      .330805778503D-05  .498856417835D-03  .142958015203D-04  .528264707756D+04
      .298800000000D+06 -.637955963612D-07  .237584119326D+00  .218860805035D-07
      .946956947826D+00  .646718750000D+02 -.444793827105D+00 -.669242162337D-08
     -.392873507616D-09  .120000000000D+02  .953000000000D+03  .000000000000D+00
      .200000000000D+01  .000000000000D+00 -.164999995889D-07 -.164999995889D-07
      .298848000000D+06  .175000000000D+03
C08 2024 04 10 11 00 00 -.124543439597D-04 -.330748761712D-10  .000000000000D+00
      .175000000000D+03 -.194515625000D+03 -.170007081477D-09 -.194671077591D+01
     -.675395131111D-05  .257558771409D-02  .355485826731D-04  .649340284920D+04
      .298800000000D+06 -.454485416412D-06 -.258327986820D+01  .133644789457D-06
      .106957237900D+01 -.815140625000D+03  .308841944790D+01 -.117147736816D-08
      .940396314138D-09  .120000000000D+02  .953000000000D+03  .000000000000D+00
      .200000000000D+01  .000000000000D+00  .110000000220D-07 -.299999997067D-09
      .298848000000D+06  .175000000000D+03
C13 2024 04 10 11 00 00  .430292449892D-03  .202327044008D-11  .000000000000D+00
      .175000000000D+03 -.195640625000D+03 -.118576367753D-09 -.296344859427D+01
     -.671576708555D-05  .476194219664D-02  .373199582100D-04  .649323737526D+04
      .298800000000D+06 -.320374965668D-06 -.261349488459D+01  .253785401583D-06
      .103160016928D+01 -.887843750000D+03 -.238165057993D+01 -.126076680171D-08
      .935038948125D-09  .120000000000D+02  .953000000000D+03  .000000000000D+00
      .200000000000D+01  .000000000000D+00 -.100999999475D-07  .280000000963D-08
      .298848000000D+06  .175000000000D+03
E15 2024 04 10 09 40 00 -.962503254414D-04 -.220268248086D-11  .000000000000D+00
      .109000000000D+03 -.212156250000D+03  .217830502086D-08  .138256351773D+01
     -.980496406555D-05  .297498656437D-03  .106021761894D-04  .544061846542D+04
      .294000000000D+06 -.558793544769D-07  .292552962892D+01  .931322574615D-08
      .100039983369D+01  .131406250000D+03 -.384113549037D+00 -.527129099900D-08
     -.403231081907D-09  .517000000000D+03  .230900000000D+04  .000000000000D+00
      .312000000000D+01  .000000000000D+00  .675208866596D-08  .814907252789D-08
      .298866000000D+06  .000000000000D+00
G18 2024 04 10 12 00 00 -.591953285038D-03 -.682121026330D-11  .000000000000D+00
      .570000000000D+02 -.146031250000D+03  .392873507616D-08 -.227187586393D+01
     -.757910311222D-05  .395299505908D-02  .900216400623D-05  .515361941910D+04
      .302400000000D+06 -.745058059692D-08  .291623443909D+01  .186264514923D-07
      .974815273403D+00  .214093750000D+03 -.303949934152D+01 -.785532720591D-08
     -.284297556420D-09  .200000000000D+01  .230900000000D+04  .100000000000D+01
      .200000000000D+01  .000000000000D+00 -.838190317154D-08  .570000000000D+02
      .298867000000D+06  .400000000000D+01
G29 2024 04 10 11 59 44 -.602320302278D-03  .113686837722D-11  .000000000000D+00
      .160000000000D+02 -.284375000000D+01  .463590738987D-08 -.243054805351D+00
     -.240281224251D-06  .279559171759D-02  .456348061562D-06  .515361117744D+04
      .302384000000D+06 -.316649675369D-07  .192640261442D+01 -.912696123123D-07
      .971683076558D+00  .376593750000D+03  .250074893807D+01 -.856178520415D-08
     -.141077305007D-09  .200000000000D+01  .230900000000D+04  .100000000000D+01
      .200000000000D+01  .000000000000D+00 -.977888703346D-08  .160000000000D+02
      .298867000000D+06  .400000000000D+01
G28 2024 04 10 12 00 00 -.197750516236D-03 -.150066625793D-10  .000000000000D+00
      .102000000000D+03 -.241250000000D+02  .465090801470D-08  .168550093629D+01
     -.124983489513D-05  .467732897960D-03  .107511878014D-04  .515362637520D+04
      .302400000000D+06  .130385160446D-07 -.276796356925D+00 -.614672899246D-07
      .961765943195D+00  .173500000000D+03  .175863502573D+01 -.790854370830D-08
     -.650384233971D-09  .200000000000D+01  .230900000000D+04  .100000000000D+01
      .200000000000D+01  .000000000000D+00 -.931322574615D-08  .102000000000D+03
      .298867000000D+06  .400000000000D+01
G05 2024 04 10 12 00 00 -.168618280441D-03 -.136424205266D-11  .000000000000D+00
      .670000000000D+02  .187500000000D+01  .401373861690D-08  .896195450366D-01
      .162050127983D-06  .575131713413D-02  .120662152767D-04  .515359494591D+04
      .302400000000D+06 -.167638063431D-06 -.238643434400D+01  .949949026108D-07
      .970747224456D+00  .153125000000D+03  .123366682324D+01 -.777853829306D-08
      .660027492794D-09  .200000000000D+01  .230900000000D+04  .100000000000D+01
      .200000000000D+01  .000000000000D+00 -.107102096081D-07  .670000000000D+02
      .298873000000D+06  .400000000000D+01
